SPACEBEE-115            
1 52016U 22026J   23002.72518773  .00016247  00000+0  74226-3 0  9996
2 52016  97.5088   5.9271 0022867 304.7123  55.1958 15.20417973 44417
ORESAT0                 
1 52017U 22026K   23002.71386168  .00010382  00000+0  50693-3 0  9993
2 52017  97.5086   5.4514 0023985 305.5949  54.3050 15.18204856 44389
SPACEBEENZ-14           
1 52018U 22026L   23002.44373463  .00025760  00000+0  11116-2 0  9990
2 52018  97.5069   5.9620 0021864 304.2872  55.6294 15.22291540 44395
SPACEBEENZ-11           
1 52019U 22026M   23002.93841758  .00022090  00000+0  94204-3 0  9995
2 52019  97.5067   6.5238 0021530 302.0455  57.8690 15.22730943 44433
SPACEBEE-127            
1 52020U 22026N   23002.74469860  .00016294  00000+0  74880-3 0  9993
2 52020  97.5077   5.8557 0022943 304.2982  55.6081 15.20214723 44363
SPACEBEE-125            
1 52021U 22026P   23002.52352128  .00017248  00000+0  77189-3 0  9993
2 52021  97.5066   5.8146 0024335 304.1111  55.7816 15.21082594 44262
SPACEBEE-117            
1 52022U 22026Q   23002.73504789  .00016570  00000+0  75901-3 0  9996
2 52022  97.5088   5.9142 0022973 304.5094  55.3972 15.20321970 44288
SPACEBEE-116            
1 52023U 22026R   23002.71665580  .00016536  00000+0  75438-3 0  9999
2 52023  97.5088   5.9424 0022697 304.7443  55.1655 15.20468457 44283
SPACEBEE-113            
1 52024U 22026S   23002.57234313  .00016385  00000+0  74330-3 0  9992
2 52024  97.5080   5.8119 0024375 301.2930  58.5918 15.20627653 44266
SPACEBEE-112            
1 52025U 22026T   23002.78291453  .00018901  00000+0  83947-3 0  9994
2 52025  97.5078   6.1395 0022294 303.6069  56.3039 15.21364391 44304
SPACEBEENZ-13           
1 52026U 22026U   23002.56644853  .00022319  00000+0  96053-3 0  9997
2 52026  97.5067   6.1006 0021895 303.7942  56.1209 15.22412594 44193
SPACEBEE-123            
1 52027U 22026V   23002.75453749  .00017638  00000+0  80949-3 0  9996
2 52027  97.5070   5.8264 0022973 304.4935  55.4130 15.20241423 44192
SPACEBEENZ-12           
1 52028U 22026W   23002.93653469  .00019127  00000+0  83628-3 0  9990
2 52028  97.5096   6.4259 0021910 302.9556  56.9573 15.21906247 44330
SPACEBEE-124            
1 52029U 22026X   23002.56506803  .00017589  00000+0  80916-3 0  9996
2 52029  97.5066   5.6152 0022969 305.7416  54.1683 15.20160820 42880
YAOGAN-34 02            
1 52084U 22027A   23002.79113577 -.00000071  00000+0  32537-4 0  9991
2 52084  63.3975 201.1222 0022662 342.9662  17.0589 13.45247420 39222
STARLINK-3537           
1 52088U 22029A   23002.91667824 -.00938885  00000+0 -57673-1 0  9999
2 52088  53.2171 154.3509 0001830  42.2465  97.5948 15.12519433  1306
STARLINK-3722           
1 52089U 22029B   23002.77458808 -.00000004  00000+0  17891-4 0  9997
2 52089  53.2174 265.1541 0002397  25.6768 334.4343 15.08834474 45240
