[{"OBJECT_NAME":"SPACEBEE-115","OBJECT_ID":"2022-026J","EPOCH":"2023-01-02T17:24:16.219872","MEAN_MOTION":15.20417973,"ECCENTRICITY":0.0022867,"INCLINATION":97.5088,"RA_OF_ASC_NODE":5.9271,"ARG_OF_PERICENTER":304.7123,"MEAN_ANOMALY":55.1958,"EPHEMERIS_TYPE":0,"CLASSIFICATION_TYPE":"U","NORAD_CAT_ID":52016,"ELEMENT_SET_NO":999,"REV_AT_EPOCH":4441,"BSTAR":0.00074226,"MEAN_MOTION_DOT":0.00016247,"MEAN_MOTION_DDOT":0},{"OBJECT_NAME":"ORESAT0","OBJECT_ID":"2022-026K","EPOCH":"2023-01-02T17:07:57.649152","MEAN_MOTION":15.18204856,"ECCENTRICITY":0.0023985,"INCLINATION":97.5086,"RA_OF_ASC_NODE":5.4514,"ARG_OF_PERICENTER":305.5949,"MEAN_ANOMALY":54.305,"EPHEMERIS_TYPE":0,"CLASSIFICATION_TYPE":"U","NORAD_CAT_ID":52017,"ELEMENT_SET_NO":999,"REV_AT_EPOCH":4438,"BSTAR":0.00050693,"MEAN_MOTION_DOT":0.00010382,"MEAN_MOTION_DDOT":0},{"OBJECT_NAME":"SPACEBEENZ-14","OBJECT_ID":"2022-026L","EPOCH":"2023-01-02T10:38:58.672032","MEAN_MOTION":15.2229154,"ECCENTRICITY":0.0021864,"INCLINATION":97.5069,"RA_OF_ASC_NODE":5.962,"ARG_OF_PERICENTER":304.2872,"MEAN_ANOMALY":55.6294,"EPHEMERIS_TYPE":0,"CLASSIFICATION_TYPE":"U","NORAD_CAT_ID":52018,"ELEMENT_SET_NO":999,"REV_AT_EPOCH":4439,"BSTAR":0.0011116,"MEAN_MOTION_DOT":0.0002576,"MEAN_MOTION_DDOT":0},{"OBJECT_NAME":"SPACEBEENZ-11","OBJECT_ID":"2022-026M","EPOCH":"2023-01-02T22:31:19.278912","MEAN_MOTION":15.22730943,"ECCENTRICITY":0.002153,"INCLINATION":97.5067,"RA_OF_ASC_NODE":6.5238,"ARG_OF_PERICENTER":302.0455,"MEAN_ANOMALY":57.869,"EPHEMERIS_TYPE":0,"CLASSIFICATION_TYPE":"U","NORAD_CAT_ID":52019,"ELEMENT_SET_NO":999,"REV_AT_EPOCH":4443,"BSTAR":0.00094204,"MEAN_MOTION_DOT":0.0002209,"MEAN_MOTION_DDOT":0},{"OBJECT_NAME":"SPACEBEE-127","OBJECT_ID":"2022-026N","EPOCH":"2023-01-02T17:52:21.959040","MEAN_MOTION":15.20214723,"ECCENTRICITY":0.0022943,"INCLINATION":97.5077,"RA_OF_ASC_NODE":5.8557,"ARG_OF_PERICENTER":304.2982,"MEAN_ANOMALY":55.6081,"EPHEMERIS_TYPE":0,"CLASSIFICATION_TYPE":"U","NORAD_CAT_ID":52020,"ELEMENT_SET_NO":999,"REV_AT_EPOCH":4436,"BSTAR":0.0007488,"MEAN_MOTION_DOT":0.00016294,"MEAN_MOTION_DDOT":0},{"OBJECT_NAME":"SPACEBEE-125","OBJECT_ID":"2022-026P","EPOCH":"2023-01-02T12:33:52.238592","MEAN_MOTION":15.21082594,"ECCENTRICITY":0.0024335,"INCLINATION":97.5066,"RA_OF_ASC_NODE":5.8146,"ARG_OF_PERICENTER":304.1111,"MEAN_ANOMALY":55.7816,"EPHEMERIS_TYPE":0,"CLASSIFICATION_TYPE":"U","NORAD_CAT_ID":52021,"ELEMENT_SET_NO":999,"REV_AT_EPOCH":4426,"BSTAR":0.00077189,"MEAN_MOTION_DOT":0.00017248,"MEAN_MOTION_DDOT":0},{"OBJECT_NAME":"SPACEBEE-117","OBJECT_ID":"2022-026Q","EPOCH":"2023-01-02T17:38:28.137696","MEAN_MOTION":15.2032197,"ECCENTRICITY":0.0022973,"INCLINATION":97.5088,"RA_OF_ASC_NODE":5.9142,"ARG_OF_PERICENTER":304.5094,"MEAN_ANOMALY":55.3972,"EPHEMERIS_TYPE":0,"CLASSIFICATION_TYPE":"U","NORAD_CAT_ID":52022,"ELEMENT_SET_NO":999,"REV_AT_EPOCH":4428,"BSTAR":0.00075901,"MEAN_MOTION_DOT":0.0001657,"MEAN_MOTION_DDOT":0},{"OBJECT_NAME":"SPACEBEE-116","OBJECT_ID":"2022-026R","EPOCH":"2023-01-02T17:11:59.061120","MEAN_MOTION":15.20468457,"ECCENTRICITY":0.0022697,"INCLINATION":97.5088,"RA_OF_ASC_NODE":5.9424,"ARG_OF_PERICENTER":304.7443,"MEAN_ANOMALY":55.1655,"EPHEMERIS_TYPE":0,"CLASSIFICATION_TYPE":"U","NORAD_CAT_ID":52023,"ELEMENT_SET_NO":999,"REV_AT_EPOCH":4428,"BSTAR":0.00075438,"MEAN_MOTION_DOT":0.00016536,"MEAN_MOTION_DDOT":0},{"OBJECT_NAME":"SPACEBEE-113","OBJECT_ID":"2022-026S","EPOCH":"2023-01-02T13:44:10.446432","MEAN_MOTION":15.20627653,"ECCENTRICITY":0.0024375,"INCLINATION":97.508,"RA_OF_ASC_NODE":5.8119,"ARG_OF_PERICENTER":301.293,"MEAN_ANOMALY":58.5918,"EPHEMERIS_TYPE":0,"CLASSIFICATION_TYPE":"U","NORAD_CAT_ID":52024,"ELEMENT_SET_NO":999,"REV_AT_EPOCH":4426,"BSTAR":0.0007433,"MEAN_MOTION_DOT":0.00016385,"MEAN_MOTION_DDOT":0},{"OBJECT_NAME":"SPACEBEE-112","OBJECT_ID":"2022-026T","EPOCH":"2023-01-02T18:47:23.815392","MEAN_MOTION":15.21364391,"ECCENTRICITY":0.0022294,"INCLINATION":97.5078,"RA_OF_ASC_NODE":6.1395,"ARG_OF_PERICENTER":303.6069,"MEAN_ANOMALY":56.3039,"EPHEMERIS_TYPE":0,"CLASSIFICATION_TYPE":"U","NORAD_CAT_ID":52025,"ELEMENT_SET_NO":999,"REV_AT_EPOCH":4430,"BSTAR":0.00083947,"MEAN_MOTION_DOT":0.00018901,"MEAN_MOTION_DDOT":0},{"OBJECT_NAME":"SPACEBEENZ-13","OBJECT_ID":"2022-026U","EPOCH":"2023-01-02T13:35:41.152992","MEAN_MOTION":15.22412594,"ECCENTRICITY":0.0021895,"INCLINATION":97.5067,"RA_OF_ASC_NODE":6.1006,"ARG_OF_PERICENTER":303.7942,"MEAN_ANOMALY":56.1209,"EPHEMERIS_TYPE":0,"CLASSIFICATION_TYPE":"U","NORAD_CAT_ID":52026,"ELEMENT_SET_NO":999,"REV_AT_EPOCH":4419,"BSTAR":0.00096053,"MEAN_MOTION_DOT":0.00022319,"MEAN_MOTION_DDOT":0},{"OBJECT_NAME":"SPACEBEE-123","OBJECT_ID":"2022-026V","EPOCH":"2023-01-02T18:06:32.039136","MEAN_MOTION":15.20241423,"ECCENTRICITY":0.0022973,"INCLINATION":97.507,"RA_OF_ASC_NODE":5.8264,"ARG_OF_PERICENTER":304.4935,"MEAN_ANOMALY":55.413,"EPHEMERIS_TYPE":0,"CLASSIFICATION_TYPE":"U","NORAD_CAT_ID":52027,"ELEMENT_SET_NO":999,"REV_AT_EPOCH":4419,"BSTAR":0.00080949,"MEAN_MOTION_DOT":0.00017638,"MEAN_MOTION_DDOT":0},{"OBJECT_NAME":"SPACEBEENZ-12","OBJECT_ID":"2022-026W","EPOCH":"2023-01-02T22:28:36.597216","MEAN_MOTION":15.21906247,"ECCENTRICITY":0.002191,"INCLINATION":97.5096,"RA_OF_ASC_NODE":6.4259,"ARG_OF_PERICENTER":302.9556,"MEAN_ANOMALY":56.9573,"EPHEMERIS_TYPE":0,"CLASSIFICATION_TYPE":"U","NORAD_CAT_ID":52028,"ELEMENT_SET_NO":999,"REV_AT_EPOCH":4433,"BSTAR":0.00083628,"MEAN_MOTION_DOT":0.00019127,"MEAN_MOTION_DDOT":0},{"OBJECT_NAME":"SPACEBEE-124","OBJECT_ID":"2022-026X","EPOCH":"2023-01-02T13:33:41.877792","MEAN_MOTION":15.2016082,"ECCENTRICITY":0.0022969,"INCLINATION":97.5066,"RA_OF_ASC_NODE":5.6152,"ARG_OF_PERICENTER":305.7416,"MEAN_ANOMALY":54.1683,"EPHEMERIS_TYPE":0,"CLASSIFICATION_TYPE":"U","NORAD_CAT_ID":52029,"ELEMENT_SET_NO":999,"REV_AT_EPOCH":4288,"BSTAR":0.00080916,"MEAN_MOTION_DOT":0.00017589,"MEAN_MOTION_DDOT":0},{"OBJECT_NAME":"YAOGAN-34 02","OBJECT_ID":"2022-027A","EPOCH":"2023-01-02T18:59:14.130528","MEAN_MOTION":13.4524742,"ECCENTRICITY":0.0022662,"INCLINATION":63.3975,"RA_OF_ASC_NODE":201.1222,"ARG_OF_PERICENTER":342.9662,"MEAN_ANOMALY":17.0589,"EPHEMERIS_TYPE":0,"CLASSIFICATION_TYPE":"U","NORAD_CAT_ID":52084,"ELEMENT_SET_NO":999,"REV_AT_EPOCH":3922,"BSTAR":3.2537e-5,"MEAN_MOTION_DOT":-7.1e-7,"MEAN_MOTION_DDOT":0},{"OBJECT_NAME":"STARLINK-3537","OBJECT_ID":"2022-029A","EPOCH":"2023-01-02T22:00:00.999936","MEAN_MOTION":15.12519433,"ECCENTRICITY":0.000183,"INCLINATION":53.2171,"RA_OF_ASC_NODE":154.3509,"ARG_OF_PERICENTER":42.2465,"MEAN_ANOMALY":97.5948,"EPHEMERIS_TYPE":0,"CLASSIFICATION_TYPE":"U","NORAD_CAT_ID":52088,"ELEMENT_SET_NO":999,"REV_AT_EPOCH":130,"BSTAR":-0.057673,"MEAN_MOTION_DOT":-0.00938885,"MEAN_MOTION_DDOT":0},{"OBJECT_NAME":"STARLINK-3722","OBJECT_ID":"2022-029B","EPOCH":"2023-01-02T18:35:24.410112","MEAN_MOTION":15.08834474,"ECCENTRICITY":0.0002397,"INCLINATION":53.2174,"RA_OF_ASC_NODE":265.1541,"ARG_OF_PERICENTER":25.6768,"MEAN_ANOMALY":334.4343,"EPHEMERIS_TYPE":0,"CLASSIFICATION_TYPE":"U","NORAD_CAT_ID":52089,"ELEMENT_SET_NO":999,"REV_AT_EPOCH":4524,"BSTAR":1.7891e-5,"MEAN_MOTION_DOT":-4.0e-8,"MEAN_MOTION_DDOT":0}]
